[{"OBJECT_NAME":"TIANMU-1 21","OBJECT_ID":"2023-208C","EPOCH":"2026-03-09T21:48:13.065120","MEAN_MOTION":15.33041299,"ECCENTRICITY":0.00059807,"INCLINATION":97.4378,"RA_OF_ASC_NODE":187.7048,"ARG_OF_PERICENTER":317.2488,"MEAN_ANOMALY":42.8288,"EPHEMERIS_TYPE":0,"CLASSIFICATION_TYPE":"U","NORAD_CAT_ID":58662,"ELEMENT_SET_NO":999,"REV_AT_EPOCH":12234,"BSTAR":0.00040063782,"MEAN_MOTION_DOT":0.00012722,"MEAN_MOTION_DDOT":0},{"OBJECT_NAME":"STARLINK-34924","OBJECT_ID":"2025-195M","EPOCH":"2026-03-09T20:14:46.901760","MEAN_MOTION":15.3020956,"ECCENTRICITY":0.00013263,"INCLINATION":53.1607,"RA_OF_ASC_NODE":257.7223,"ARG_OF_PERICENTER":75.7,"MEAN_ANOMALY":284.4148,"EPHEMERIS_TYPE":0,"CLASSIFICATION_TYPE":"U","NORAD_CAT_ID":65469,"ELEMENT_SET_NO":999,"REV_AT_EPOCH":3001,"BSTAR":0.00096057803,"MEAN_MOTION_DOT":0.00028207,"MEAN_MOTION_DDOT":0}]
